[{"OBJECT_NAME":"GEESAT-4 03","OBJECT_ID":"2025-170C","EPOCH":"2026-03-09T22:09:07.867872","MEAN_MOTION":14.83663029,"ECCENTRICITY":0.00208622,"INCLINATION":49.9912,"RA_OF_ASC_NODE":274.3291,"ARG_OF_PERICENTER":40.9482,"MEAN_ANOMALY":319.3019,"EPHEMERIS_TYPE":0,"CLASSIFICATION_TYPE":"U","NORAD_CAT_ID":65121,"ELEMENT_SET_NO":999,"REV_AT_EPOCH":3169,"BSTAR":0.00035876344,"MEAN_MOTION_DOT":2.774e-5,"MEAN_MOTION_DDOT":0},{"OBJECT_NAME":"FENGYUN 1C DEB","OBJECT_ID":"1999-025EHN","EPOCH":"2026-03-02T16:35:42.867168","MEAN_MOTION":14.48932739,"ECCENTRICITY":0.02433889,"INCLINATION":99.0734,"RA_OF_ASC_NODE":153.2496,"ARG_OF_PERICENTER":110.1255,"MEAN_ANOMALY":252.6301,"EPHEMERIS_TYPE":0,"CLASSIFICATION_TYPE":"U","NORAD_CAT_ID":37444,"ELEMENT_SET_NO":999,"REV_AT_EPOCH":66308,"BSTAR":0.00093157503,"MEAN_MOTION_DOT":5.091e-5,"MEAN_MOTION_DDOT":0}]
